*******************************************************************************
JPL/HORIZONS               65803 Didymos (1996 GT)         2023-Sep-21 12:13:26
Rec #:   65803 (+COV) Soln.date: 2023-Mar-19_00:09:41   # obs: 3121 (1996-2023)
 
IAU76/J2000 helio. ecliptic osc. elements (au, days, deg., period=Julian yrs):
 
  EPOCH=  2459957. ! 2023-Jan-12.50 (TDB)          Residual RMS= .052877
   EC= .3832947329867846   QR= 1.012947259273837   TP= 2459874.2900586105
   OM= 72.99221760945375   W=  319.5559920731379   IN= 3.414168800300961
   A= 1.642514363757057    MA= 38.72558818260499   ADIST= 2.272081468240276
   PER= 2.1051             N= .468209595           ANGMOM= .020362553
   DAN= 1.08477            DDN= 1.97827            L= 32.5984518
   B= -2.2140276           MOID= .0399931          TP= 2022-Oct-21.7900586105
 
Asteroid physical parameters (km, seconds, rotational period in hours):
   GM= n.a.                RAD= .390               ROTPER= 2.2593
   H= 18.11                G= .150                 B-V= n.a.
                           ALBEDO= n.a.            STYP= Xk

Asteroid non-gravitational force model (AMRAT= m^2/kg;A1,A2,A3=au/d^2;R0=au):
   AMRAT=  0.
   A1= 0.                  A2= -1.042309691002E-14 A3= 0.
 Non-standard or simulated/proxy model:
   ALN=  1.            NK=  0.       NM=  2.       NN=  0.       R0=  1.

ASTEROID comments: 
1: soln ref.= JPL#204, PHA  OCC=0       radar( 9 delay, 0 Dop.)
2: source=ORB
*******************************************************************************


*******************************************************************************
Ephemeris / WWW_USER Thu Sep 21 12:13:26 2023 Pasadena, USA      / Horizons    
*******************************************************************************
Target body name: 65803 Didymos (1996 GT)         {source: JPL#204}
Center body name: Earth (399)                     {source: DE441}
Center-site name: Royal Obs.,Blackford Hill,Edinburgh
*******************************************************************************
Start time      : A.D. 1973-Jul-10 23:44:00.0000 UT      
Stop  time      : A.D. 2002-Nov-11 06:21:00.0000 UT      
Step-size       : 1440 minutes
*******************************************************************************
Target pole/equ : undefined
Target radii    : 0.39 km                                                      
Center geodetic : 356.8175, 55.9249145, .118735   {E-lon(deg),Lat(deg),Alt(km)}
Center cylindric: 356.8175,3581.83678,5259.86113  {E-lon(deg),Dxy(km),Dz(km)}
Center pole/equ : ITRF93                          {East-longitude positive}
Center radii    : 6378.137, 6378.137, 6356.752 km {Equator_a, b, pole_c}       
Target primary  : Sun
Vis. interferer : MOON (R_eq= 1737.400) km        {source: DE441}
Rel. light bend : Sun                             {source: DE441}
Rel. lght bnd GM: 1.3271E+11 km^3/s^2                                          
Small-body perts: Yes                             {source: SB441-N16}
Atmos refraction: NO (AIRLESS)
RA format       : HMS
Time format     : CAL 
Calendar mode   : Mixed Julian/Gregorian
EOP file        : eop.230919.p231213                                           
EOP coverage    : DATA-BASED 1962-JAN-20 TO 2023-SEP-19. PREDICTS-> 2023-DEC-12
Units conversion: 1 au= 149597870.700 km, c= 299792.458 km/s, 1 day= 86400.0 s 
Table cut-offs 1: Elevation (-90.0deg=NO ),Airmass (>38.000=NO), Daylight (NO )
Table cut-offs 2: Solar elongation (  0.0,180.0=NO ),Local Hour Angle( 0.0=NO )
Table cut-offs 3: RA/DEC angular rate (     0.0=NO )                           
*******************************************************************************
Initial IAU76/J2000 heliocentric ecliptic osculating elements (au, days, deg.):
  EPOCH=  2459957. ! 2023-Jan-12.50 (TDB)          Residual RMS= .052877       
   EC= .3832947329867846   QR= 1.012947259273837   TP= 2459874.2900586105      
   OM= 72.99221760945375   W=  319.5559920731379   IN= 3.414168800300961       
  Equivalent ICRF heliocentric cartesian coordinates (au, au/d):
   X=-4.648623706209897E-01  Y= 1.095304279628405E+00  Z= 5.268777823370772E-01
  VX=-1.653762024211188E-02 VY=-8.482057283044145E-04 VZ= 6.507046097937929E-04
Asteroid physical parameters (km, seconds, rotational period in hours):        
   GM= n.a.                RAD= .390               ROTPER= 2.2593              
   H= 18.11                G= .150                 B-V= n.a.                   
                           ALBEDO= n.a.            STYP= Xk                    
Asteroid non-gravitational force model (AMRAT= m^2/kg;A1,A2,A3=au/d^2;R0=au):  
   AMRAT=  0.                                                                  
   A1= 0.                  A2= -1.042309691002E-14 A3= 0.                      
 Non-standard or simulated/proxy model:                                        
   ALN=  1.            NK=  0.       NM=  2.       NN=  0.       R0=  1.       
******************************************************************************************************************************************************************************
 Date__(UT)__HR:MN     R.A.__(FK4/B1950)___DEC    APmag   S-brt             delta      deldot     S-O-T /r     S-T-O  Sky_motion  Sky_mot_PA  RelVel-ANG  Lun_Sky_Brt  sky_SNR
******************************************************************************************************************************************************************************
$$SOE
 1979-Jun-05 23:44 Nm  11 20 35.93 +07 52 22.3   22.459   5.890  1.90776523281054  24.6297737   93.5563 /T   27.1968   0.5828756   121.02027   61.376814         n.a.     n.a.
 1979-Jun-06 23:44 Nm  11 21 25.10 +07 45 09.8   22.476   5.892  1.92184259745741  24.6195671   92.8350 /T   27.2004   0.5935016   120.79251   60.750097         n.a.     n.a.
 1979-Jun-07 23:44 Nm  11 22 15.23 +07 37 52.2   22.494   5.893  1.93591258586924  24.6059925   92.1183 /T   27.1994   0.6038999   120.57754   60.130158         n.a.     n.a.
 1979-Jun-08 23:44 Nm  11 23 06.29 +07 30 29.8   22.511   5.895  1.94997333429814  24.5892315   91.4059 /T   27.1940   0.6140778   120.37435   59.516900         n.a.     n.a.
 1979-Jun-09 23:44 Nm  11 23 58.26 +07 23 02.7   22.528   5.896  1.96402308140791  24.5694555   90.6978 /T   27.1843   0.6240440   120.18196   58.910160         n.a.     n.a.
 1979-Jun-10 23:44 Nm  11 24 51.13 +07 15 30.9   22.544   5.897  1.97806015736848  24.5468078   89.9938 /T   27.1702   0.6338089   119.99946   58.309690         n.a.     n.a.
 1979-Jun-11 23:44 Nm  11 25 44.88 +07 07 54.5   22.560   5.898  1.99208296199174  24.5213843   89.2939 /T   27.1520   0.6433841   119.82600   57.715155         n.a.     n.a.
 1979-Jun-12 23:44 Nm  11 26 39.48 +07 00 13.7   22.576   5.899  2.00608993286327  24.4932194   88.5979 /T   27.1297   0.6527813   119.66080   57.126150         n.a.     n.a.
 1979-Jun-13 23:44 Nm  11 27 34.93 +06 52 28.5   22.592   5.899  2.02007950804652  24.4622817   87.9057 /T   27.1034   0.6620116   119.50313   56.542234         n.a.     n.a.
 1979-Jun-14 23:44 Nm  11 28 31.19 +06 44 39.0   22.607   5.900  2.03405009029577  24.4284836   87.2174 /T   27.0731   0.6710844   119.35238   55.962971         n.a.     n.a.
 1979-Jun-15 23:44 N   11 29 28.27 +06 36 45.3   22.622   5.901  2.04800001938177  24.3916993   86.5326 /T   27.0389   0.6800070   119.20798   55.387973         n.a.     n.a.
 1979-Jun-16 23:44 N   11 30 26.15 +06 28 47.4   22.637   5.901  2.06192755633569  24.3517864   85.8515 /T   27.0009   0.6887841   119.06948   54.816923         n.a.     n.a.
 1979-Jun-17 23:44 N   11 31 24.80 +06 20 45.4   22.652   5.901  2.07583087985827  24.3086060   85.1739 /T   26.9592   0.6974184   118.93649   54.249592         n.a.     n.a.
 1979-Jun-18 23:44 N   11 32 24.23 +06 12 39.4   22.666   5.901  2.08970809259762  24.2620365   84.4998 /T   26.9137   0.7059106   118.80868   53.685828         n.a.     n.a.
 1979-Jun-19 23:44 N   11 33 24.41 +06 04 29.5   22.681   5.901  2.10355723413172  24.2119830   83.8290 /T   26.8647   0.7142605   118.68576   53.125557         n.a.     n.a.
 1979-Jun-20 23:44 N   11 34 25.33 +05 56 15.6   22.694   5.901  2.11737629787473  24.1583820   83.1616 /T   26.8120   0.7224666   118.56749   52.568765         n.a.     n.a.
 1979-Jun-21 23:44 N   11 35 26.99 +05 47 58.0   22.708   5.901  2.13116324991232  24.1012035   82.4975 /T   26.7559   0.7305274   118.45364   52.015486         n.a.     n.a.
 1979-Jun-22 23:44 N   11 36 29.35 +05 39 36.7   22.721   5.901  2.14491604836413  24.0404505   81.8367 /T   26.6963   0.7384410   118.34403   51.465792         n.a.     n.a.
 1979-Jun-23 23:44 N   11 37 32.42 +05 31 11.6   22.735   5.900  2.15863266210752  23.9761576   81.1790 /T   26.6333   0.7462058   118.23845   50.919778         n.a.     n.a.
 1979-Jun-24 23:44 N   11 38 36.17 +05 22 43.1   22.748   5.900  2.17231108773374  23.9083862   80.5245 /T   26.5671   0.7538209   118.13671   50.377548         n.a.     n.a.
 1979-Jun-25 23:44 N   11 39 40.60 +05 14 11.0   22.760   5.899  2.18594936371254  23.8372197   79.8731 /T   26.4975   0.7612856   118.03864   49.839207         n.a.     n.a.
 1979-Jun-26 23:44 N   11 40 45.69 +05 05 35.4   22.773   5.898  2.19954558106358  23.7627565   79.2246 /T   26.4248   0.7686003   117.94406   49.304850         n.a.     n.a.
 1979-Jun-27 23:44 N   11 41 51.42 +04 56 56.6   22.785   5.898  2.21309789037323  23.6851043   78.5792 /T   26.3490   0.7757659   117.85278   48.774554         n.a.     n.a.
 1979-Jun-28 23:44 N   11 42 57.79 +04 48 14.4   22.797   5.897  2.22660450559207  23.6043750   77.9367 /T   26.2702   0.7827839   117.76462   48.248382         n.a.     n.a.
 1979-Jun-29 23:44 N   11 44 04.78 +04 39 29.0   22.808   5.896  2.24006370553610  23.5206816   77.2970 /T   26.1883   0.7896564   117.67942   47.726381         n.a.     n.a.
 1979-Jun-30 23:44 N   11 45 12.37 +04 30 40.5   22.820   5.894  2.25347383428093  23.4341380   76.6601 /T   26.1035   0.7963857   117.59699   47.208586         n.a.     n.a.
 1979-Jul-01 23:44 Nm  11 46 20.55 +04 21 49.0   22.831   5.893  2.26683330166849  23.3448592   76.0260 /T   26.0159   0.8029743   117.51718   46.695029         n.a.     n.a.
 1979-Jul-02 23:44 Nm  11 47 29.32 +04 12 54.4   22.842   5.892  2.28014058496766  23.2529649   75.3945 /T   25.9255   0.8094250   117.43983   46.185738         n.a.     n.a.
